ONEWEB-0168             
1 48068U 21025AC  24094.78284966  .00000063  00000+0  13757-3 0  9999
2 48068  87.8899 120.3342 0002084  94.7663 265.3705 13.13466725147964
ONEWEB-0173             
1 48069U 21025AD  24094.77492086 -.00000073  00000+0 -23476-3 0  9995
2 48069  87.8905 120.3461 0002051 108.1174 252.0179 13.13471052148201
ONEWEB-0171             
1 48070U 21025AE  24094.81142756  .00000130  00000+0  32103-3 0  9997
2 48070  87.8902 120.3739 0001902  97.8483 262.2862 13.13471155148025
ONEWEB-0172             
1 48071U 21025AF  24094.79078364 -.00000283  00000+0 -81073-3 0  9999
2 48071  87.8905 120.3448 0001892  99.6077 260.5266 13.13471119148910
ONEWEB-0174             
1 48072U 21025AG  24094.77333113 -.00000071  00000+0 -22921-3 0  9996
2 48072  87.8907 120.3625 0002159  92.0606 268.0771 13.13468788148239
ONEWEB-0175             
1 48073U 21025AH  24094.80189627 -.00000134  00000+0 -40137-3 0  9999
2 48073  87.8898 120.3497 0001577  97.3811 262.7498 13.13470909147891
ONEWEB-0177             
1 48074U 21025AJ  24094.81459905  .00000218  00000+0  56293-3 0  9991
2 48074  87.8898 120.3539 0002315 103.1811 256.9577 13.13471543148086
ONEWEB-0178             
1 48075U 21025AK  24094.83219635  .00000344  00000+0  90594-3 0  9990
2 48075  87.8906 120.3632 0002128  99.5707 260.5663 13.13470570148137
